[
    {
        "Altitude(m)": 704541.8582346857,
        "Argument of Periapsis(deg)": 0.009112096949301655,
        "Eccentricity": 0.0,
        "Inclination(deg)": 45.0,
        "Latitude(deg)": -6.6138157206633235,
        "Longitude(deg)": -138.9906320292955,
        "Mean Anomaly(deg)": 189.22657331798464,
        "RAAN(deg)": 134.99139844683341,
        "Satellite Name": "Constellation 1 605",
        "Satellite Number": 605,
        "Semi-Major Axis(m)": 7083131.272910544,
        "Time(s)": 152
    },
    {
        "Altitude(m)": 704550.5088355497,
        "Argument of Periapsis(deg)": 0.009172044955547059,
        "Eccentricity": 0.0,
        "Inclination(deg)": 45.0,
        "Latitude(deg)": -6.656723562515791,
        "Longitude(deg)": -138.95131950075657,
        "Mean Anomaly(deg)": 189.28727445823455,
        "RAAN(deg)": 134.99134185766786,
        "Satellite Name": "Constellation 1 605",
        "Satellite Number": 605,
        "Semi-Major Axis(m)": 7083131.272910544,
        "Time(s)": 153
    },
    {
        "Altitude(m)": 704559.1779870098,
        "Argument of Periapsis(deg)": 0.009231992961792466,
        "Eccentricity": 0.0,
        "Inclination(deg)": 45.0,
        "Latitude(deg)": -6.699627433061148,
        "Longitude(deg)": -138.91199952142844,
        "Mean Anomaly(deg)": 189.3479755984845,
        "RAAN(deg)": 134.9912852685023,
        "Satellite Name": "Constellation 1 605",
        "Satellite Number": 605,
        "Semi-Major Axis(m)": 7083131.272910544,
        "Time(s)": 154
    },
    {
        "Altitude(m)": 704567.865668538,
        "Argument of Periapsis(deg)": 0.009291940968037872,
        "Eccentricity": 0.0,
        "Inclination(deg)": 45.0,
        "Latitude(deg)": -6.742527306315417,
        "Longitude(deg)": -138.87267204179494,
        "Mean Anomaly(deg)": 189.40867673873433,
        "RAAN(deg)": 134.99122867933673,
        "Satellite Name": "Constellation 1 605",
        "Satellite Number": 605,
        "Semi-Major Axis(m)": 7083131.272910544,
        "Time(s)": 155
    },
    {
        "Altitude(m)": 704576.5718595074,
        "Argument of Periapsis(deg)": 0.009351888974283276,
        "Eccentricity": 0.0,
        "Inclination(deg)": 45.0,
        "Latitude(deg)": -6.785423156280704,
        "Longitude(deg)": -138.8333371804208,
        "Mean Anomaly(deg)": 189.46937787898418,
        "RAAN(deg)": 134.99117209017115,
        "Satellite Name": "Constellation 1 605",
        "Satellite Number": 605,
        "Semi-Major Axis(m)": 7083131.272910544,
        "Time(s)": 156
    },
    {
        "Altitude(m)": 704585.2965392093,
        "Argument of Periapsis(deg)": 0.00941183698052868,
        "Eccentricity": 0.0,
        "Inclination(deg)": 45.0,
        "Latitude(deg)": -6.828314956945755,
        "Longitude(deg)": -138.79399455156357,
        "Mean Anomaly(deg)": 189.5300790192342,
        "RAAN(deg)": 134.9911155010056,
        "Satellite Name": "Constellation 1 605",
        "Satellite Number": 605,
        "Semi-Major Axis(m)": 7083131.272910544,
        "Time(s)": 157
    },
    {
        "Altitude(m)": 704594.0396868427,
        "Argument of Periapsis(deg)": 0.009471784986774088,
        "Eccentricity": 0.0,
        "Inclination(deg)": 45.0,
        "Latitude(deg)": -6.8712026822841334,
        "Longitude(deg)": -138.75464427375613,
        "Mean Anomaly(deg)": 189.590780159484,
        "RAAN(deg)": 134.99105891184,
        "Satellite Name": "Constellation 1 605",
        "Satellite Number": 605,
        "Semi-Major Axis(m)": 7083131.272910544,
        "Time(s)": 158
    },
    {
        "Altitude(m)": 704602.8012815367,
        "Argument of Periapsis(deg)": 0.009531732993019492,
        "Eccentricity": 0.0,
        "Inclination(deg)": 45.0,
        "Latitude(deg)": -6.914086306255576,
        "Longitude(deg)": -138.715286297418,
        "Mean Anomaly(deg)": 189.65148129973397,
        "RAAN(deg)": 134.99100232267443,
        "Satellite Name": "Constellation 1 605",
        "Satellite Number": 605,
        "Semi-Major Axis(m)": 7083131.272910544,
        "Time(s)": 159
    },
    {
        "Altitude(m)": 704611.5813023122,
        "Argument of Periapsis(deg)": 0.009591680999264898,
        "Eccentricity": 0.0,
        "Inclination(deg)": 45.0,
        "Latitude(deg)": -6.956965802805283,
        "Longitude(deg)": -138.67592057295246,
        "Mean Anomaly(deg)": 189.71218243998385,
        "RAAN(deg)": 134.99094573350888,
        "Satellite Name": "Constellation 1 605",
        "Satellite Number": 605,
        "Semi-Major Axis(m)": 7083131.272910544,
        "Time(s)": 160
    },
    {
        "Altitude(m)": 704620.379728118,
        "Argument of Periapsis(deg)": 0.009651629005510304,
        "Eccentricity": 0.0,
        "Inclination(deg)": 45.0,
        "Latitude(deg)": -6.999841145864118,
        "Longitude(deg)": -138.63654705074643,
        "Mean Anomaly(deg)": 189.7728835802338,
        "RAAN(deg)": 134.99088914434333,
        "Satellite Name": "Constellation 1 605",
        "Satellite Number": 605,
        "Semi-Major Axis(m)": 7083131.272910544,
        "Time(s)": 161
    },
    {
        "Altitude(m)": 704629.1965378085,
        "Argument of Periapsis(deg)": 0.00971157701175571,
        "Eccentricity": 0.0,
        "Inclination(deg)": 45.0,
        "Latitude(deg)": -7.0427123093482304,
        "Longitude(deg)": -138.59716568117042,
        "Mean Anomaly(deg)": 189.83358472048366,
        "RAAN(deg)": 134.99083255517775,
        "Satellite Name": "Constellation 1 605",
        "Satellite Number": 605,
        "Semi-Major Axis(m)": 7083131.272910544,
        "Time(s)": 162
    },
    {
        "Altitude(m)": 704638.0317101551,
        "Argument of Periapsis(deg)": 0.009771525018001118,
        "Eccentricity": 0.0,
        "Inclination(deg)": 45.0,
        "Latitude(deg)": -7.085579267158932,
        "Longitude(deg)": -138.5577765826754,
        "Mean Anomaly(deg)": 189.89428586073356,
        "RAAN(deg)": 134.99077596601217,
        "Satellite Name": "Constellation 1 605",
        "Satellite Number": 605,
        "Semi-Major Axis(m)": 7083131.272910544,
        "Time(s)": 163
    },
    {
        "Altitude(m)": 704646.8852238423,
        "Argument of Periapsis(deg)": 0.00983147302424652,
        "Eccentricity": 0.0,
        "Inclination(deg)": 45.0,
        "Latitude(deg)": -7.128441993183567,
        "Longitude(deg)": -138.51837936940447,
        "Mean Anomaly(deg)": 189.9549870009835,
        "RAAN(deg)": 134.99071937684658,
        "Satellite Name": "Constellation 1 605",
        "Satellite Number": 605,
        "Semi-Major Axis(m)": 7083131.272910544,
        "Time(s)": 164
    },
    {
        "Altitude(m)": 704655.7570574672,
        "Argument of Periapsis(deg)": 0.009891421030491928,
        "Eccentricity": 0.0,
        "Inclination(deg)": 45.0,
        "Latitude(deg)": -7.171300461293674,
        "Longitude(deg)": -138.4789741597753,
        "Mean Anomaly(deg)": 190.01568814123334,
        "RAAN(deg)": 134.99066278768103,
        "Satellite Name": "Constellation 1 605",
        "Satellite Number": 605,
        "Semi-Major Axis(m)": 7083131.272910544,
        "Time(s)": 165
    },
    {
        "Altitude(m)": 704664.6471895414,
        "Argument of Periapsis(deg)": 0.009951369036737332,
        "Eccentricity": 0.0,
        "Inclination(deg)": 45.0,
        "Latitude(deg)": -7.214154645346256,
        "Longitude(deg)": -138.43956090409165,
        "Mean Anomaly(deg)": 190.07638928148324,
        "RAAN(deg)": 134.99060619851548,
        "Satellite Name": "Constellation 1 605",
        "Satellite Number": 605,
        "Semi-Major Axis(m)": 7083131.272910544,
        "Time(s)": 166
    },
    {
        "Altitude(m)": 704673.5555984899,
        "Argument of Periapsis(deg)": 0.010011317042982738,
        "Eccentricity": 0.0,
        "Inclination(deg)": 45.0,
        "Latitude(deg)": -7.257004519183202,
        "Longitude(deg)": -138.4001395526402,
        "Mean Anomaly(deg)": 190.13709042173318,
        "RAAN(deg)": 134.9905496093499,
        "Satellite Name": "Constellation 1 605",
        "Satellite Number": 605,
        "Semi-Major Axis(m)": 7083131.272910544,
        "Time(s)": 167
    },
    {
        "Altitude(m)": 704682.4822626514,
        "Argument of Periapsis(deg)": 0.010071265049228144,
        "Eccentricity": 0.0,
        "Inclination(deg)": 45.0,
        "Latitude(deg)": -7.299850056631221,
        "Longitude(deg)": -138.36071005569076,
        "Mean Anomaly(deg)": 190.19779156198305,
        "RAAN(deg)": 134.99049302018435,
        "Satellite Name": "Constellation 1 605",
        "Satellite Number": 605,
        "Semi-Major Axis(m)": 7083131.272910544,
        "Time(s)": 168
    },
    {
        "Altitude(m)": 704691.4271602794,
        "Argument of Periapsis(deg)": 0.01013121305547355,
        "Eccentricity": 0.0,
        "Inclination(deg)": 45.0,
        "Latitude(deg)": -7.342691231501885,
        "Longitude(deg)": -138.32127236349586,
        "Mean Anomaly(deg)": 190.25849270223299,
        "RAAN(deg)": 134.99043643101876,
        "Satellite Name": "Constellation 1 605",
        "Satellite Number": 605,
        "Semi-Major Axis(m)": 7083131.272910544,
        "Time(s)": 169
    },
    {
        "Altitude(m)": 704700.390269541,
        "Argument of Periapsis(deg)": 0.010191161061718957,
        "Eccentricity": 0.0,
        "Inclination(deg)": 45.0,
        "Latitude(deg)": -7.3855280175912315,
        "Longitude(deg)": -138.28182642629105,
        "Mean Anomaly(deg)": 190.31919384248283,
        "RAAN(deg)": 134.99037984185318,
        "Satellite Name": "Constellation 1 605",
        "Satellite Number": 605,
        "Semi-Major Axis(m)": 7083131.272910544,
        "Time(s)": 170
    }
]